GSAT0219 (GALILEO 23)
1 43566U 18060C   26179.06402313 -.00000092  00000+0  00000+0 0  9993
2 43566  57.1687 341.4920 0001786 313.2076  46.7699  1.70476307 49376
